Property Name,Address,Phone Number,Website,Property Mgmt Company,Mgmt Phone,Mgmt Email,Mgmt Address,Leasing Agent,Agent Phone,Agent Email,Agent Address,Agent Website
East Coast Logistics,"6030 Commerce Blvd, Garden City, GA 31408",(912) 964-0994,eastcoast-logistics.com,N/A,N/A (private),Via website,"250 Vesey St, New York, NY 10281",Cushman & Wakefield (Gilbert & Ezelle),(912) 236-8992,Via website,"820 Abercorn St, Savannah, GA 31401",gilbertezelle.com
DSI Logistics,"1 Birkenhead Rd, Port Wentworth, GA 31407",(912) 964-0399,dsicompanies.com,N/A,(912) 964-0399,N/A (internal mgmt),"1 Birkenhead Rd, Port Wentworth, GA 31407",Justin Redmond (DSI Logistics),(912) 721-8275,justin.redmond@dsicompanies.com,"1 Birkenhead Rd, Port Wentworth, GA 31407",dsicompanies.com
Dynacraft/CRC Georgia,"1501 Crossgate Rd, Port Wentworth, GA 31407",(800) 551-0032,4rv4cyls.com,"SA Savannah Crossgate 520, LLC",N/A,N/A,"1501 Crossgate Rd, Port Wentworth, GA 31407",Hilary Shipley (Colliers Int'l),(912) 662-8013,hilary.shipley@colliers.com,"545 E York St, Savannah, GA 31401",colliers.com
"CBC Warehouse, LLC","986 Bourne Ave, Garden City, GA 31408",(912) 964-1441,cbwarehouse.com,"CBC Warehouse, LLC",(912) 964-1441,bill@cbcwarehouse.com,"986 Bourne Ave Suite B, Savannah, GA 31408",Owner-managed (CBC Warehouse),N/A,N/A,N/A,cbwarehouse.com
Coastal Empire Tint & Vinyl,"106 Central Jct Blvd Ste C, Savannah, GA 31405",(912) 356-3969,3v3c3cs.com,"Sago Property Management, LLC",(912) 330-2472,kristin@sagopropertymanagement.com,"315 Commercial Dr, Suite B6, Savannah, GA",Sago Property Management,(912) 330-2472,kristin@sagopropertymanagement.com,"315 Commercial Dr, Suite B6, Savannah, GA",sagopropertymanagement.com
Supply Chain Mgmt & Cat Testing Labs,"984 Bourne Ave, Savannah, GA 31408",(912) 964-9999,N/A,Penrod Savannah Warehouse,(912) 963-9962,N/A,"986 Bourne Ave Suite B, Savannah, GA 31408",Penrod Savannah Warehouse,(912) 963-9962,N/A,"986 Bourne Ave Suite B, Savannah, GA 31408",thepenrodcompany.com
Charlie Smith Air Conditioning,"1702 E President St, Savannah, GA 31404",(912) 232-1650,charliesmithac.com,"Charlie Smith Air Conditioning, Inc.",(912) 232-1650,N/A,"110 Central Junction Blvd, Savannah, GA",Owner-occupied,N/A,N/A,N/A,charliesmithac.com
Southern Roof Center,"1410 Mills B Ln Blvd, Savannah, GA 31405",(912) 236-1151,locations.becn.com,Beacon Building Products,(912) 236-1151,contact@becn.com,"1410 Mills B Ln Blvd, Savannah, GA 31405",Owner-occupied (Beacon Roofing),N/A,N/A,N/A,locations.becn.com
Continental Field Systems,"3025 Limerick St, Savannah, GA 31404",(912) 232-8121,cfsusa.net,"Continental Field Systems, Inc.",(912) 232-8121,echristoph@cfsusa.net,"23 Westgate Blvd, Savannah, GA 31405",Owner-occupied,N/A,N/A,N/A,cfsusa.net
SRS Building Products,"23 Westgate Blvd, Savannah, GA 31405",(800) 627-6885,N/A,"CFS Realty Company, LLC",(912) 232-8121,echristoph@cfsusa.net,"23 Westgate Blvd, Savannah, GA 31405","David Sink, SIOR (Colliers Int'l)",(912) 662-8010,david.sink@colliers.com,"545 E York St, Savannah, GA 31401",colliers.com
Atlantic Marine Warehouse (Transflo),"2351 Tremont Rd, Savannah, GA 31405",(912) 421-3386,altmwc.com,Atlantic Marine Warehouse Co.,(912) 257-4271,jwestberry@peeplesind.com,"2495 Tremont Rd, Savannah, GA 31405",Jackson Westberry (AMWC),(912) 644-3386,jwestberry@peeplesind.com,"2495 Tremont Rd, Savannah, GA 31405",altmwc.com
Cycle Up Logistics,"300 Telfair Rd, Savannah, GA 31415",(912) 335-2869,cycleuplogistics.com,CenterPoint Properties Trust,(201) 221-1918,dnenner@centerpoint.com,"250 Pehle Ave, Suite 704, Saddle Brook, NJ",David Nenner (CenterPoint Properties),(201) 221-1918,dnenner@centerpoint.com,"250 Pehle Ave, Saddle Brook, NJ",centerpoint.com
US Port Services,"320 Telfair Rd, Savannah, GA 31415",(954) 895-0316,N/A,CenterPoint Properties Trust,(201) 221-1918,dnenner@centerpoint.com,"250 Pehle Ave, Saddle Brook, NJ",David Nenner (CenterPoint Properties),(201) 221-1918,dnenner@centerpoint.com,"250 Pehle Ave, Saddle Brook, NJ",centerpoint.com
FNS Warehouse Office,"53 Sonny Perdue Dr, Garden City, GA 31408",(912) 965-0500,N/A,CenterPoint Properties Trust,(201) 221-1918,dnenner@centerpoint.com,"1808 Swift Dr, Suite A, Oak Brook, IL 60523",David Nenner (CenterPoint Properties),(201) 221-1918,dnenner@centerpoint.com,"250 Pehle Ave, Saddle Brook, NJ",centerpoint.com
Coastal Logistics Group,"50 Sonny Perdue Dr, Garden City, GA 31408",(912) 964-0707,coastalligistics.com,CenterPoint Properties Trust,(201) 221-1918,dnenner@centerpoint.com,"1808 Swift Dr, Suite A, Oak Brook, IL 60523",David Nenner (CenterPoint Properties),(201) 221-1918,dnenner@centerpoint.com,"250 Pehle Ave, Saddle Brook, NJ",centerpoint.com
Judge Warehouse,"400 Logistics Way, Port Wentworth, GA 31407",(912) 964-9044,N/A,The Judge Organization,(912) 964-9044,N/A,"201 Bay Ave, Elizabeth, NJ 07201",N/A (fully occupied),N/A,N/A,N/A,N/A
Judge/Tricam,"980 Bourne Ave, Savannah, GA 31408",(912) 963-2077,internationalpaper.com,"Judge Warehousing, LLC",(912) 964-9044,N/A,"201 Bay Ave, Elizabeth, NJ 07201",David Sink (Colliers International),(912) 662-8010,david.sink@colliers.com,"545 E York St, Savannah, GA 31401",colliers.com
East Coast Logistics,"6030 Commerce Blvd, Garden City, GA 31408",(912) 964-0994,eastcoast-logistics.com,Brookfield Properties,N/A,Via website,"250 Vesey Street, New York, NY 10281",Cushman & Wakefield (Gilbert & Ezelle),(912) 236-8992,Via website,"820 Abercorn St, Savannah, GA 31401",gilbertezelle.com
1 Birkenhead Rd,"1 Birkenhead Rd, Port Wentworth, GA 31407",(912) 964-0399,dsicompanies.com,DSI Logistics,(912) 964-0399,N/A,"1 Birkenhead Rd, Port Wentworth, GA 31407",N/A (Owner-operated),N/A,N/A,N/A,dsicompanies.com
"McCarthy, Inc.","3100 Ogeechee Rd, Savannah, GA 31405",(912) 236-1461,mccarthyinc.com,"McCarthy, Inc.",(912) 236-4461,bids@mccarthyinc.com,"3100 Ogeechee Rd, Savannah, GA 31405",N/A (Owner-occupied),N/A,N/A,N/A,mccarthyinc.com
Amazon Fulfillment Center SAV4,"1500 N Godley Dr, Pooler, GA 31322",N/A,amazon.com,"Lincoln Property Company (Property Manager)​lpc.com
​lpc.com",(404) 266-7600​midtownatl.com,N/A,"3405 Piedmont Rd NE, Suite 100, Atlanta, GA 30305​midtownatl.com",N/A (fully occupied by Amazon),N/A,N/A,N/A,N/A
Atlantic Marine Warehouse Company,"2495 Tremont Rd, Savannah, GA 31405​buzzfile.com
​buzzfile.com","(912) 234-5110​peeplesind.com
​peeplesind.com",atlmwc.com​buzzfile.com,"Peeples Industries, Inc. (Facility Owner/Manager)​peeplesind.com
​peeplesind.com",(912) 644-3386​peeplesind.com,jwestberry@peeplesind.com​peeplesind.com,"2495 Tremont Rd, Savannah, GA 31405​peeplesind.com
​peeplesind.com",N/A (owner-managed),N/A,N/A,N/A,N/A
Whiplash (Port Logistics Group),"47 Sonny Perdue Dr, Garden City, GA 31408​mapquest.com","(912) 436-3887​mapquest.com
​mapquest.com",whiplash.com​dnb.com,CenterPoint Properties (Owner/Manager)​centerpoint.com,(201) 221-1918​centerpoint.com,dnenner@centerpoint.com​centerpoint.com,"1808 Swift Dr, Suite A, Oak Brook, IL 60523​centerpoint.com",N/A (100% leased by Whiplash),N/A,N/A,N/A,N/A
"East Coast Logistics, Inc.","101 Coleman Blvd, Ste H, Savannah, GA 31408​rebusinessonline.com
​rebusinessonline.com","(912) 748-8762​mapquest.com
​mapquest.com",eastcoast-logistics.com​mapquest.com,"Denholtz Properties (Owner)​rebusinessonline.com
​rebusinessonline.com",N/A (handled via Colliers),N/A,"116 Chestnut St, Suite 102, Red Bank, NJ 07701​denholtz.com
​denholtz.com",David Sink (Colliers International)​rebusinessonline.com,(912) 662-8010​interstatewestsavannah.com,david.sink@colliers.com​interstatewestsavannah.com,"545 E York St, Savannah, GA 31401​interstatewestsavannah.com
​interstatewestsavannah.com",colliers.com
Lansing Building Products,"5240 Old Louisville Rd, Building 42, Pooler, GA 31322​lansingbp.com
​lansingbp.com","(912) 748-4962​database.hhahba.com
​database.hhahba.com","lansingbp.com​database.hhahba.com
​database.hhahba.com","Warehouse Rentals, LLC (Bassford Companies)​georgia.org
​warehouserentals.net",(229) 242-5977​warehouserentals.net,property@warehouserentals.net​warehouserentals.net,"1621 Clay Rd, Valdosta, GA 31601​ecorp.sos.ga.gov
​ecorp.sos.ga.gov",N/A (leased by owner directly),N/A,N/A,N/A,N/A
Belfast Logistics,"2600 Belfast Keller Rd, Richmond Hill, GA 31324​cbre.com",N/A,N/A,Lincoln Property Company​lpc.com,404-266-7600​lpc.com,N/A,"3340 Peachtree Rd NE, Suite 2550, Atlanta, GA 30326​lpc.com",Danny Chase (Colliers)​clementine-emu-r55m.squarespace.com,(912) 662-8012​clementine-emu-r55m.squarespace.com,danny.chase@colliers.com​clementine-emu-r55m.squarespace.com,"545 E. York St, Savannah, GA 31401​clementine-emu-r55m.squarespace.com",colliers.com/savannah​clementine-emu-r55m.squarespace.com
EPL Georgia,"300 Monahan Dr, Bloomingdale, GA 31302​tradeatlas.com",(912) 527-1607​marklines.com,edscha.com/en​marklines.com,N/A,N/A,N/A,N/A,N/A,N/A,N/A,N/A,N/A
Judge Warehouse,"400 Logistics Way, Port Wentworth, GA 31407​chamberofcommerce.com",(912) 298-0100​thejudgeorg.com,thejudgeorg.com​thejudgeorg.com,N/A,N/A,N/A,N/A,N/A,N/A,N/A,N/A,N/A
Stop N Stor,"1010 S. H. Morgan Pkwy, Pooler, GA 31322​stopnstorstorage.com",(912) 417-3700​stopnstorstorage.com,stopnstorstorage.com​stopnstorstorage.com,Stop N Stor Self Storage​members.poolerchamber.com,(912) 386-0500​members.poolerchamber.com,N/A,"9100 White Bluff Rd, Suite 503, Savannah, GA 31406​members.poolerchamber.com",N/A,N/A,N/A,N/A,N/A
KDC GA Corp,"246 Grange Rd, Savannah, GA 31407​zillow.com",(516) 621-9779​dnb.com,kissusa.com​kissusa.com,N/A,N/A,N/A,N/A,N/A,N/A,N/A,N/A,N/A
Schneider Logistics Inc.,"250 Grange Rd, Port Wentworth, GA 31407​yellowpages.com",(912) 965-2022​yellowpages.com,www.schneider.com&#8203;:contentReference[oaicite:2]{index=2},"Prologis​prologis.com
 (Owner)",(404) 760-7200​legal-services.cmac.ws,chanavich@prologis.com​prologis.getbynder.com,"3475 Piedmont Rd NE, Suite 650, Atlanta, GA 30305​prologis.getbynder.com",Stephen D. Ezelle​propertyshark.com,(912) 441-3083​gitcsavannah.com,sezelle@gilbertezelle.com​gitcsavannah.com,"820 Abercorn St, Savannah, GA 31401​gilbertezelle.com",www.gilbertezelle.com&#8203;:contentReference[oaicite:11]{index=11}
DIRTT Environmental Solutions,"155 Knowlton Way, Savannah, GA 31407​dirtt.com",(912) 966-9117​dirtt.com,www.dirtt.com&#8203;:contentReference[oaicite:14]{index=14},"SH7‐Savannah, LLC (HOOPP Realty Inc.)​sec.gov
 (Landlord)",N/A,N/A,"6600 France Ave S, Suite 550, Minneapolis, MN 55435​ecorp.sos.ga.gov",N/A,N/A,N/A,N/A,N/A
"Main Ocean Services, LLC","200 Logistics Way, Port Wentworth, GA 31407​mainocean.com",(912) 712-0131​mainocean.com,www.mainocean.com&#8203;:contentReference[oaicite:19]{index=19},N/A,N/A,N/A,N/A,N/A,N/A,N/A,N/A,N/A
Walmart DC 7086,"163 Portside Ct, Savannah, GA 31407​mapquest.com",(912) 871-4000​mapquest.com,www.walmart.com&#8203;:contentReference[oaicite:22]{index=22},"Savannah Economic Dev. Authority​city-data.com
 (Owner)",(912) 447-8450​seda.org,moreinfo@seda.org​seda.org,"906 Drayton St, Savannah, GA 31401​seda.org",N/A,N/A,N/A,N/A,N/A
NFI Cal Cartage,"101 Little Hearst Pkwy, Port Wentworth, GA 31407​studylib.net",(912) 964-5603​studylib.net,www.nfiindustries.com&#8203;:contentReference[oaicite:29]{index=29},Georgia Ports Authority (Owner)​weixuan006.jdzj.com,(912) 963-5526​gaports.com,csv@gaports.com​gaports.com,"2 Main St, Garden City, GA 31408​gaports.com",N/A,N/A,N/A,N/A,N/A
Shaw Industries – Plant QM (Shipping & Receiving),"590 North Port Pkwy, Port Wentworth, GA 31407​thenetleasegroup.com",(912) 966-6946​mapquest.com,shawinc.com​mapquest.com,Monmouth Real Estate Investment Corp. (Owner)​thenetleasegroup.com,(732) 577-9996​content.edgar-online.com,mreic@mreic.com​globenewswire.com,"3499 Route 9 N, Suite 3-D, Freehold, NJ 07728​content.edgar-online.com","N/A (Single-tenant, fully leased)",N/A,N/A,N/A,N/A
“Heidi’s” Warehouse,"Trade Center Pkwy, Rincon, GA 31326",N/A,N/A,N/A,N/A,N/A,N/A,N/A,N/A,N/A,N/A,N/A
"Supply Chain Management, LLC (Warehouse)","1601 Old Augusta Rd S, Rincon, GA 31326​tia.officialbuyersguide.net",(912) 443-4008​tia.officialbuyersguide.net,scmllc.net​tia.officialbuyersguide.net,Owner-Occupied (Self-Managed),N/A,N/A,N/A,N/A (Owner uses entire facility),N/A,N/A,N/A,N/A
Aertssen Logistics USA Inc. (Facility),"1004 Gateway Pkwy, Rincon, GA 31326​commercialsearch.com",(912) 704-8998​aertssenlogistics.com,aertssenlogistics.com​aertssenlogistics.com,"Walton Street Capital, LLC (Owner)​commercialsearch.com",(312) 915-2800​waltonst.com,info@waltonst.com​waltonst.com,"900 N Michigan Ave, Suite 1900, Chicago, IL 60611​waltonst.com","Cliff Dales, SIOR (Colliers Int’l)​commercialsearch.com",(912) 662-8009​savannahportsideinternationalpark.com,cliff.dales@colliers.com​savannahportsideinternationalpark.com,"545 E York St, Savannah, GA 31401​savannahchamber.com",colliers.com/savannah​savannahchamber.com
Savannah Gateway Industrial Hub (SGIH) (Industrial Park),"McCall Rd, Rincon, GA 31326​effinghamindustry.com",(912) 392-3000​effinghamindustry.com,savannahgatewayindustrialhub.com,Joint Venture: Effingham County IDA & Broe Real Estate Group​commercialsearch.com,(912) 392-3000​effinghamindustry.com,N/A,"777 Old Augusta Rd, Rincon, GA 31326​effinghamindustry.com","Cliff Dales, SIOR (Colliers Int’l)​commercialsearch.com",(912) 662-8009​savannahportsideinternationalpark.com,cliff.dales@colliers.com​savannahportsideinternationalpark.com,"545 E York St, Savannah, GA 31401​savannahchamber.com",colliers.com/savannah​savannahchamber.com
Averitt Express,"301 International Trade Pkwy, Savannah, GA 31407​guide.in.ua",800-283-7488​guide.in.ua,averitt.com​guide.in.ua,"N/A (Owner-occupied by Averitt Express​chesterfieldllc.com
)",N/A,N/A,N/A,N/A,N/A,N/A,N/A,N/A
Warehouse Home Depot,"597 Northport Pkwy, Port Wentworth, GA 31407​yellowpages.com",N/A,homedepot.com​yellowpages.com,TPA Group​lee-associates.com,770-436-3400​tpa-grp.com,info@tpa-grp.com​tpa-grp.com,"1776 Peachtree St NW, Suite 100, Atlanta, GA 30309​tpa-grp.com",N/A,N/A,N/A,N/A,N/A
**GEODIS,Contract Logistics**,"503 Morgan Lakes Industrial Blvd #100, Savannah, GA 31407​waze.com",912-348-6408​waze.com,geodis.com​waze.com,McCraney Property Company​mccraneyproperty.com,561-478-4300​mccraneyproperty.com,N/A,"2257 Vista Parkway #15, West Palm Beach, FL 33411​mccraneyproperty.com","William Lattimore, SIOR (CBRE)​mccraneyproperty.com",912-596-7019​mccraneyproperty.com,william.lattimore@cbre.com​mccraneyproperty.com,"144 Habersham St, Savannah, GA 31401​savannahchamber.com"
Kyungshin America Corp.,"1004 Gateway Pkwy, Rincon, GA 31326​commercialsearch.com",N/A,N/A,"N/A (Savannah Gateway Industrial Hub owned by Broe/OmniTRAX​commercialsearch.com
; sold to investor Walton Street Capital​commercialsearch.com
)",N/A,N/A,N/A,"Cliff Dales, SIOR (Colliers)​listingsprod.blob.core.windows.net",912-662-8009​listingsprod.blob.core.windows.net,cliff.dales@colliers.com​listingsprod.blob.core.windows.net,"545 E York St, Savannah, GA 31401​savannahportsideinternationalpark.com",colliers.com​savannahportsideinternationalpark.com
Lowe’s BDC,"2020 Trade Center Blvd Building 3A, Suite 100, Rincon, GA 31326​gitcsavannah.com",N/A,lowes.com,"N/A (100% leased to Lowe’s; developed by Stonemont/Davis JV​thedaviscompanies.com
)",N/A,N/A,N/A,"Stephen Ezelle, SIOR, CCIM (C&W/Gilbert & Ezelle)​gitcsavannah.com",912-441-3083​gitcsavannah.com,sezelle@gilbertezelle.com​gitcsavannah.com,"820 Abercorn St, Savannah, GA 31401​gilbertezelle.com",gilbertezelle.com​neverbounce.com
Shaw Industries – Plant QM (Shipping & Receiving),"590 North Port Pkwy, Port Wentworth, GA 31407​commercialsearch.com",(912) 966-6946​mapquest.com,shawinc.com​mapquest.com,"Monmouth Real Estate Investment Corp.​philadelphia.citybuzz.co
 (Owner)",(732) 577-9996​marketscreener.com,N/A,"101 Crawfords Corner Rd, Suite 1405, Holmdel, NJ 07733​marketscreener.com",N/A,N/A,N/A,N/A,N/A
“Heidi’s” (GITC),"Trade Center Pkwy, Rincon, GA 31326",N/A,N/A,"Chesterfield, LLC (Developer)​chesterfieldllc.com
​chesterfieldllc.com",(912) 721-8662​chesterfieldllc.com,info@chesterfieldllc.com​chesterfieldllc.com,"100 Bull St, Suite 200, Savannah, GA 31401​chesterfieldllc.com",N/A,N/A,N/A,N/A,N/A
"Supply Chain Management, LLC","1601 Old Augusta Rd S, Rincon, GA 31326​tia.officialbuyersguide.net",(912) 443-4008​tia.officialbuyersguide.net,www.scmllc.net&#8203;:contentReference[oaicite:13]{index=13},"Supply Chain Management, LLC (Owner-Occupied)",(912) 443-4008​tia.officialbuyersguide.net,N/A,"1601 Old Augusta Rd S, Rincon, GA 31326​tia.officialbuyersguide.net",N/A,N/A,N/A,N/A,N/A
Aertssen Logistics USA Inc.,"1004 Gateway Pkwy, Rincon, GA 31326​effinghamindustry.com",(912) 704-8998​aertssenlogistics.com,aertssenlogistics.com​aertssenlogistics.com,Broe Real Estate Group (Savannah Gateway Industrial Hub)​omnitrax.com,(912) 721-8670​omnitrax.com,srogers@broerealestate.com​omnitrax.com,"252 Clayton St, 4th Floor, Denver, CO 80206​omnitrax.com",N/A,N/A,N/A,N/A,N/A
Savannah Gateway Industrial Hub (SGIH),"4575 McCall Rd, Rincon, GA 31326​omnitrax.com",(877) 276-3777​omnitrax.com,N/A,Broe Real Estate Group / OmniTRAX (Developer)​omnitrax.com,(877) 276-3777​omnitrax.com,N/A,"4575 McCall Rd, Rincon, GA 31326​omnitrax.com","David Sink, SIOR​savannahgatewayindustrialhub.com",(912) 662-8010​savannahgatewayindustrialhub.com,david.sink@colliers.com​savannahgatewayindustrialhub.com,"545 E York St, Savannah, GA 31401​savannahchamber.com",colliers.com/Savannah​savannahchamber.com
Mingledorff’s – Savannah,"103 Central Jct Blvd, Savannah, GA 31405",(912) 232-1228​yellowpages.com,mingledorffs.com​yellowpages.com,N/A,N/A,N/A,N/A,N/A,N/A,N/A,N/A,N/A
American Tire Distributors,"1402 Mills B Lane Blvd, Savannah, GA 31405",(912) 234-9858​wholesale-tire-stores.cmac.ws,atd-us.com​wholesale-tire-stores.cmac.ws,"G. Holmes Bell Properties, LLC​city-data.com",(912) 354-4626​husseygaybell.com,N/A,"329 Commercial Dr, Suite 200, Savannah, GA 31406​ecorp.sos.ga.gov",N/A,N/A,N/A,N/A,N/A
National Distributing Co Inc,"1414 Mills B Lane Blvd, Savannah, GA 31405",(912) 233-2201​rndc-usa.com,rndc-usa.com​westernspirits.com,N/A (Owner-occupied by NDC),N/A,N/A,N/A,N/A,N/A,N/A,N/A,N/A
WIN.IT America Inc – USGA,"301 Cypress Mdw Dr #100, Pooler, GA 31322",1-855-GO-WINIT​winitamerica.com,winitamerica.com​dnb.com,N/A,N/A,N/A,N/A,N/A,N/A,N/A,N/A,N/A
"Mitsubishi Power Americas, Inc.","1000 Pine Meadow Dr, Pooler, GA 31322",(912) 629-7187​savannahchamber.com,power.mhi.com/regions/amer/​savannahchamber.com,N/A (Owner-occupied by Mitsubishi),N/A,N/A,N/A,N/A,N/A,N/A,N/A,N/A
Downix Gaming Chair Warehouse,"1315 Dean Forest Rd, Savannah, GA 31405​dowinx.com",(912) 349-2830​savannahga.gov,dowinx.com​dowinx.com,H&M Property Management LLC (Craig Hatfield)​savannahga.gov,(706) 489-0839​savannahga.gov,craig@czsgrp.com​savannahga.gov,"2100 Torrence Chapel Rd, Cornelius, NC 28031​savannahga.gov","William Lattimore (CBRE)​cbre.com
​cbre.com",(912) 228-3528​cbre.com,william.lattimore@cbre.com​riverportcommerce.com,"300 Drayton St, Suite 100, Savannah, GA 31401​riverportcommerce.com",cbre.com​savannahchamber.com
Sunbelt Rentals Flooring Solutions,"25 Telfair Pl, Savannah, GA 31415​mapquest.com","(912) 712-7531​mapquest.com
​mapquest.com","sunbeltrentals.com​mapquest.com
​mapquest.com",Colliers International (Savannah office)​savannahchamber.com,(912) 233-7111​savannahchamber.com,N/A,"545 E York St, Savannah, GA 31401​savannahchamber.com","David Sink, SIOR & Zachary Zakas (Colliers)​commercialcafe.com
​commercialcafe.com","(912) 662-8010 / (912) 417-0009​totalcommercial.com
​tenantbase.com","david.sink@colliers.com / zachary.zakas@colliers.com​totalcommercial.com
​tenantbase.com","545 E York St, Savannah, GA 31401​savannahchamber.com",colliers.com/Savannah​savannahchamber.com
Georgia-Pacific Scalehouse,"(Port of Savannah) Savannah, GA 31415",N/A,gp.com​yellowpages.com,Georgia-Pacific (Owner-Managed)​yellowpages.com,(404) 652-4000​georgia-pacific.pissedconsumer.com,N/A,"133 Peachtree St NE, Atlanta, GA 30303​georgiapower.com",N/A (owner-occupied),N/A,N/A,N/A,N/A
Ozburn Hessey Logistics LLC,"2385 Tremont Rd, Savannah, GA 31405​mapquest.com",(912) 232-6125​mapquest.com,ohl.com​mapquest.com,Savannah Industrial Properties LLC (Owner)​city-data.com,N/A,N/A,"PO Box 3524, Spartanburg, SC 29304​pa.gov",William Lattimore (CBRE)​cbre.com,(912) 596-7019​riverportcommerce.com,william.lattimore@cbre.com​riverportcommerce.com,"144 Habersham St, Suite 100, Savannah, GA 31401​cbre.com",cbre.com​savannahchamber.com
Lineage (Cold Storage Warehouse),"2375 Tremont Rd, Savannah, GA 31405​onelineage.com",(912) 521-6500​onelineage.com,lineage.com​onelineage.com,Brookwood Capital Partners (Lindsay Sewell)​savannahga.gov,(919) 239-4667​savannahga.gov,lindsay@brookwoodcp.com​savannahga.gov,"400 W North St, Suite 112, Raleigh, NC 27603​savannahga.gov",N/A (fully leased to Lineage),N/A,N/A,N/A,N/A
Epoch Everlasting Play LLC,"2367B Tremont Rd, Savannah, GA 31405",1-800-631-1272​calicocritters.com,EpochEverlastingPlay.com​calicocritters.com,"H&M Property Management LLC​savannahga.gov
​savannahga.gov","(706) 489-0839​savannahga.gov
​savannahga.gov",craig@czsgrp.com​savannahga.gov,"2100 Torrence Chapel Rd, Cornelius, NC 28031​savannahga.gov
​savannahga.gov",William Lattimore (CBRE)​riverportcommerce.com,(912) 596-7019​riverportcommerce.com,william.lattimore@cbre.com​riverportcommerce.com,"300 Drayton St, Suite 100, Savannah, GA 31401​riverportcommerce.com",cbre.com
Interglass,"2367A Tremont Rd, Suite 100, Savannah, GA 31405",(305) 885-4442​waze.com,interglassusa.com​waze.com,"H&M Property Management LLC​savannahga.gov
​savannahga.gov","(706) 489-0839​savannahga.gov
​savannahga.gov",craig@czsgrp.com​savannahga.gov,"2100 Torrence Chapel Rd, Cornelius, NC 28031​savannahga.gov
​savannahga.gov",William Lattimore (CBRE)​riverportcommerce.com,(912) 596-7019​riverportcommerce.com,william.lattimore@cbre.com​riverportcommerce.com,"300 Drayton St, Suite 100, Savannah, GA 31401​riverportcommerce.com",cbre.com
Amazon XLDS HSA1,"2367 Tremont Rd, Savannah, GA 31405",N/A (not public),Amazon.com​savannahchamber.com,"H&M Property Management LLC​savannahga.gov
​savannahga.gov","(706) 489-0839​savannahga.gov
​savannahga.gov",craig@czsgrp.com​savannahga.gov,"2100 Torrence Chapel Rd, Cornelius, NC 28031​savannahga.gov
​savannahga.gov",William Lattimore (CBRE)​riverportcommerce.com,(912) 596-7019​riverportcommerce.com,william.lattimore@cbre.com​riverportcommerce.com,"300 Drayton St, Suite 100, Savannah, GA 31401​riverportcommerce.com",cbre.com
National Refrigeration (DC 109),"2385 Tremont Rd, Savannah, GA 31405",N/A,N/A,CenterPoint Properties​centerpoint.com,(630) 586-8000​centerpoint.com,dnenner@centerpoint.com​cubfilestorage.blob.core.windows.net,"1808 Swift Dr, Suite A, Oak Brook, IL 60523​centerpoint.com",N/A,N/A,N/A,N/A,N/A
"International Forest Co., Inc.","40 Sonny Perdue Dr, Savannah, GA 31408",N/A,N/A,CenterPoint Properties​centerpoint.com,(630) 586-8000​centerpoint.com,dnenner@centerpoint.com​cubfilestorage.blob.core.windows.net,"1808 Swift Dr, Suite A, Oak Brook, IL 60523​centerpoint.com",N/A,N/A,N/A,N/A,N/A
DOLE Packaged Foods,"101 Clyde Alexander Way, Pooler, GA 31322​buzzfile.com",(909) 433-3131​buzzfile.com,www.dolesunshine.com&#8203;:contentReference[oaicite:2]{index=2},Granite Real Estate Investment Trust (Granite REIT),=+1 (469) 965-3326​granitereit.com,N/A,"3102 Oak Lawn Ave., Ste 540, Dallas, TX 75219​granitereit.com","Jon Sorg (Granite REIT)​granitereit.com
​granitereit.com",#ERROR!,N/A,"3102 Oak Lawn Ave., Ste 540, Dallas, TX 75219​granitereit.com",granitereit.com​granitereit.com
Best Choice Products,"100 Clyde Alexander Way, Pooler, GA 31322​osha.gov",(909) 948-8409​waze.com,www.bestchoiceproducts.com&#8203;:contentReference[oaicite:12]{index=12},Granite Real Estate Investment Trust (Granite REIT)​bizjournals.com,=+1 (469) 965-3326​granitereit.com,N/A,"3102 Oak Lawn Ave., Ste 540, Dallas, TX 75219​granitereit.com","Jon Sorg (Granite REIT)​granitereit.com
​granitereit.com",#ERROR!,N/A,"3102 Oak Lawn Ave., Ste 540, Dallas, TX 75219​granitereit.com",granitereit.com​granitereit.com
"Ocean Link, Inc.","5250 Old Louisville Rd, Pooler, GA 31322​mapquest.com",(912) 330-7222​yellowpages.com,www.ocean-link.info&#8203;:contentReference[oaicite:23]{index=23},N/A,N/A,N/A,N/A,"David Sink (Colliers International)​commercialsearch.com
​totalcommercial.com",(912) 662-8010​totalcommercial.com,david.sink@colliers.com​totalcommercial.com,"545 E. York St., Savannah, GA 31401​totalcommercial.com",colliers.com​savannahgatewayindustrialhub.com
Phillips 66 Distribution,"125 Coleman Blvd, Pooler, GA 31322​yellowpages.com",(912) 748-4843​yellowpages.com,www.phillips66gas.com&#8203;:contentReference[oaicite:32]{index=32},"Stephen Green Properties, Inc.​savannahchamber.com",(912) 341-0077​savannahchamber.com,N/A,"111 Barnard St., Ste 301, Savannah, GA 31401​savannahchamber.com",Hilary Shipley (Colliers International)​savannahportsideinternationalpark.com,(912) 662-8013​savannahportsideinternationalpark.com,hilary.shipley@colliers.com​savannahportsideinternationalpark.com,"545 E. York St., Savannah, GA 31401​totalcommercial.com",colliers.com​savannahgatewayindustrialhub.com
Savannah Coca-Cola Bottling Co.,"102 Coleman Blvd, Savannah, GA 31408​effinghamcounty.com",(912) 748-0033​effinghamcounty.com,www.cocacolaunited.com/locations/savannah/&#8203;:contentReference[oaicite:43]{index=43}&#8203;:contentReference[oaicite:44]{index=44},"Coca-Cola Bottling Company UNITED, Inc.​city-data.com",(912) 748-0033​effinghamcounty.com,N/A,"P.O. Box 1110, Pooler, GA 31322​cocacolaunited.com",N/A,N/A,N/A,N/A,N/A
Altis Aero Systems Inc,"101 Coleman Blvd #G, Pooler, GA 31322",(912) 748-1800​yellowpages.com,collinsaerospace.com​yellowpages.com,Denholtz Properties (Owner)​rebusinessonline.com,(732) 388-3000​denholtz.com,N/A,"116 Chestnut Street, Suite 102, Red Bank, NJ 07701​denholtz.com","David Sink, SIOR (Colliers)​rebusinessonline.com",(912) 662-8010​interstatewestsavannah.com,david.sink@colliers.com​interstatewestsavannah.com,"545 E. York Street, Savannah, GA 31401​interstatewestsavannah.com",colliers.com/savannah​savannahportsideinternationalpark.com
Alside,"176 Pine Barren Rd, Pooler, GA 31322",(912) 748-2069​mapquest.com,alside.com​mapquest.com,PB 102000 LLC (Owner)​city-data.com,N/A,N/A,"P.O. Box 16058, Savannah, GA 31416​pacermonitor.com",N/A,N/A,N/A,N/A,N/A
Pooler Distribution Complex,"5250 Old Louisville Rd, Pooler, GA 31322",N/A,N/A,Pooler Distribution Complex LLC (Owner)​georgiacompanyregistry.com,N/A,N/A,"P.O. Box 126, Valdosta, GA 31603​georgiacompanyregistry.com","David Sink, SIOR; Danny Chase, SIOR (Colliers)​commercialcafe.com
​interstatewestsavannah.com",(912) 662-8010; (912) 662-8012​interstatewestsavannah.com,david.sink@colliers.com; danny.chase@colliers.com​interstatewestsavannah.com,"545 E. York Street, Savannah, GA 31401​interstatewestsavannah.com",colliers.com/savannah​savannahportsideinternationalpark.com
NEAL BROTHERS WAREHOUSE – BLDG 35,"5250 Old Louisville Rd, Building 35, Pooler, GA 31322",(843) 554-0007​nealbrothers.com,nealbrothers.com​nealbrothers.com,Pooler Distribution Complex LLC (Owner)​georgiacompanyregistry.com,N/A,N/A,"P.O. Box 126, Valdosta, GA 31603​georgiacompanyregistry.com","David Sink, SIOR; Danny Chase, SIOR (Colliers)​commercialcafe.com
​interstatewestsavannah.com",(912) 662-8010; (912) 662-8012​interstatewestsavannah.com,david.sink@colliers.com; danny.chase@colliers.com​interstatewestsavannah.com,"545 E. York Street, Savannah, GA 31401​interstatewestsavannah.com",colliers.com/savannah​savannahportsideinternationalpark.com
Coastal Logistics – BLDG 22,"5250 Old Louisville Rd, Building 22, Pooler, GA 31322",(912) 964-0707​savannahchamber.com,coastallogistics.com​savannahchamber.com,Pooler Distribution Complex LLC (Owner)​georgiacompanyregistry.com,N/A,N/A,"P.O. Box 126, Valdosta, GA 31603​georgiacompanyregistry.com","David Sink, SIOR; Danny Chase, SIOR (Colliers)​commercialcafe.com
​interstatewestsavannah.com",(912) 662-8010; (912) 662-8012​interstatewestsavannah.com,david.sink@colliers.com; danny.chase@colliers.com​interstatewestsavannah.com,"545 E. York Street, Savannah, GA 31401​interstatewestsavannah.com",colliers.com/savannah​savannahportsideinternationalpark.com
Bi-Silque,"5240 Old Louisville Rd Building 36, Pooler, GA 31322​mastervision-products.com",(912) 999-4057​mastervision-products.com,www.bisilque.com&#8203;:contentReference[oaicite:2]{index=2},"W.H. Johnson Realty, Inc.​listingsprod.blob.core.windows.net",(912) 920-6332​listingsprod.blob.core.windows.net,whj3@bellsouth.net​listingsprod.blob.core.windows.net,"7805 Waters Ave Ste 4-A, Savannah, GA 31406​savannahga.gov","David J. Sink, SIOR​sior.com
 (Colliers)",(912) 662-8010​sior.com,david.sink@colliers.com​sior.com,"545 E. York St, Savannah, GA 31401​sior.com",www.colliers.com/savannah&#8203;:contentReference[oaicite:11]{index=11}
Paper Chemical Supply Co. (Imperial Dade),"155 Distribution Dr, Pooler, GA 31322​buzzfile.com",(912) 236-1373​buzzfile.com,www.paperchemicalsupply.com&#8203;:contentReference[oaicite:14]{index=14},N/A,N/A,N/A,N/A,N/A,N/A,N/A,N/A,N/A
Port City Logistics,"145 Distribution Dr, Pooler, GA 31322​loc8nearme.com",(912) 272-4773​loc8nearme.com,www.portcitylogistics.com,"BRE 145 Distribution Dr Owner LLC (Blackstone – Link Logistics)​cccdn.blob.core.windows.net
​opengovus.com",N/A,N/A,N/A,N/A (Fully leased),N/A,N/A,N/A,N/A
Crown Transportation,"135 Distribution Dr, Pooler, GA 31322​waze.com",(912) 629-0600​waze.com,www.crowntransportation.com&#8203;:contentReference[oaicite:21]{index=21},BRE 135 Distribution Dr Owner LLC (Blackstone – Link Logistics)​cccdn.blob.core.windows.net,N/A,N/A,N/A,"Hilary Shipley, SIOR​savannahportsideinternationalpark.com
 (Colliers)",(912) 662-8013​savannahportsideinternationalpark.com,hilary.shipley@colliers.com​savannahportsideinternationalpark.com,"545 E. York St, Savannah, GA 31401​savannahportsideinternationalpark.com",www.colliers.com/savannah&#8203;:contentReference[oaicite:27]{index=27}
SPDGA 3148,"10 Sonny Perdue Dr, Savannah, GA 31408​mapquest.com",(888) 742-5877​mapquest.com,www.ups.com&#8203;:contentReference[oaicite:30]{index=30},"CenterPoint Properties​centerpoint.com
 (Owner/Manager)",(630) 586-8000​centerpoint.com,dnenner@centerpoint.com​centerpoint.com,"1808 Swift Dr Suite A, Oak Brook, IL 60523​centerpoint.com",N/A (Fully leased),N/A,N/A,N/A,N/A
Belfast Commerce Park,"2600 Belfast Keller Rd, Richmond Hill, GA 31324​lpc.com
​lpc.com",N/A,N/A,Lincoln Property Company Southeast​blog.traqo.io,(678) 300-2646​rhbcchamber-gzcms.preview.gochambermaster.com,N/A,"3405 Piedmont Rd NE, Suite 450, Atlanta, GA 30305​rhbcchamber-gzcms.preview.gochambermaster.com",N/A,N/A,N/A,N/A,N/A
"MOBIS North America Electrified Powertrain, LLC (MNAe-SV, PE plant)","100 Mobis Road, Richmond Hill, GA 31324​savannahchamber.com",(912) 372-8738​savannahchamber.com,mobis.com​savannahchamber.com,N/A,N/A,N/A,N/A,N/A,N/A,N/A,N/A,N/A
Xebec Industrial Park (Logistix Hub Savannah),"2600 Belfast Keller Rd, Richmond Hill, GA 31324​xebecrealty.com
​xebecrealty.com",N/A,xebecrealty.com​xebecrealty.com,N/A,N/A,N/A,N/A,"Bill Sparks, SIOR (CBRE); Bret Quinlan (CBRE)​totalcommercial.com
​cbre.com","912-228-3528; 310-363-4962​totalcommercial.com
​cbre.com","bill.sparks@cbre.com; bret.quinlan@cbre.com​totalcommercial.com
​torranceindustrial.exchange","144 Habersham St, Suite 100, Savannah, GA 31401; 2221 Rosecrans Ave, Suite 100, El Segundo, CA 90245​totalcommercial.com
​cbre.com",cbre.com​totalcommercial.com
"Medline Industries, Inc. (FedEx Ground 321)","190 Medline Dr, Richmond Hill, GA 31324​rhbcchamber-gzcms.preview.gochambermaster.com",(912) 459-0754​rhbcchamber-gzcms.preview.gochambermaster.com,medline.com​rhbcchamber-gzcms.preview.gochambermaster.com,N/A,N/A,N/A,N/A,N/A,N/A,N/A,N/A,N/A
"United Distributors, Inc.","770 King George Blvd, Savannah, GA 31419​savannahchamber.com",(912) 920-9999​savannahchamber.com,udiga.com​savannahchamber.com,N/A,N/A,N/A,N/A,N/A,N/A,N/A,N/A,N/A
Coastal Forklift Rental,"780 King George Blvd, Savannah, GA 31419​news.ioslist.com",(866) 464-2139​coastalforklift.com,coastalforklift.com​coastalforklift.com,"Savannah Parkway Properties, LLC​mccmeetingspublic.blob.core.usgovcloudapi.net",N/A,N/A,"7 Mall Court, Savannah, GA 31406​mccmeetingspublic.blob.core.usgovcloudapi.net",Oleg Mitnik​news.ioslist.com,(917) 656-1682​news.ioslist.com,N/A,N/A,N/A
Kitchen Design Solutions,"760 King George Blvd Suite E, Savannah, GA 31419​cwponline.com",(912) 349-2431​cwponline.com,kitchendesignsolutions.com​kitchendesignsolutions.com,Georgetown Trade Center LLC​mapquest.com,(912) 927-2390​mapquest.com,N/A,"760 King George Blvd, Savannah, GA 31419​mapquest.com",David J. Sink (Colliers)​listingsprod.blob.core.windows.net,(912) 662-8010​listingsprod.blob.core.windows.net,david.sink@colliers.com​listingsprod.blob.core.windows.net,"545 E. York St, Savannah, GA 31401​listingsprod.blob.core.windows.net",colliers.com/savannah​listingsprod.blob.core.windows.net
Fulfillment.com (FDC),"730 King George Blvd, Savannah, GA 31419​mapquest.com",(912) 358-0111​mapquest.com,fulfillment.com​mapquest.com,N/A,N/A,N/A,N/A,N/A,N/A,N/A,N/A,N/A
Daechang Seat Savannah (DSC),"304 Four Lakes Pkwy, Bloomingdale, GA 31302​savannahchamber.com",(912) 474-8075​savannahchamber.com,godsc.co.kr​savannahchamber.com,N/A,N/A,N/A,N/A,N/A,N/A,N/A,N/A,N/A
Americold Logistics – Savannah II,"2001 Old River Rd, Bloomingdale, GA 31302​americold.com",(912) 235-0350​mapquest.com,americold.com​mapquest.com,N/A,N/A,N/A,N/A,N/A,N/A,N/A,N/A,N/A
Bradshaw Home Distribution Center,"201 Savannah Portside International Pkwy, Bloomingdale, GA 31302",909-476-3884​bradshawhome.com,bradshawhome.com,Crestlight Capital (Owner),(313) 408-4949​neverbounce.com,N/A,"1001 Woodward Ave, Floor 5, Detroit, MI 48226​neverbounce.com","Cliff Dales, SIOR (Colliers)",912-662-8009​savannahportsideinternationalpark.com,cliff.dales@colliers.com​savannahportsideinternationalpark.com,"545 E York Street, Savannah, GA 31401​savannahportsideinternationalpark.com",colliers.com/savannah
"MerchSource, LLC Distribution Center","301 Savannah Portside International Pkwy, Bloomingdale, GA 31302",949-900-0900​fcc.report,merchsource.com​fcc.report,Crestlight Capital (Owner),(313) 408-4949​neverbounce.com,N/A,"1001 Woodward Ave, Floor 5, Detroit, MI 48226​neverbounce.com","Cliff Dales, SIOR (Colliers)",912-662-8009​savannahportsideinternationalpark.com,cliff.dales@colliers.com​savannahportsideinternationalpark.com,"545 E York Street, Savannah, GA 31401​savannahportsideinternationalpark.com",colliers.com/savannah
"ONL Huffy Bicycles
(O’Neill Logistics)","3051 Jimmy Deloach Pkwy, Bloomingdale, GA 31302",912-400-8660​oneilllogistics.com,oneilllogistics.com,Trinity Capital Advisors (Owner/Dev),704-714-4515​trinitycapitaladvisors.com,info@trinitycapitaladvisors.com​trinitycapitaladvisors.com,"650 South Tryon Street, Suite 900, Charlotte, NC 28202​trinitycapitaladvisors.com","William Lattimore, SIOR (CBRE)",912-596-7019​riverportcommerce.com,william.lattimore@cbre.com​riverportcommerce.com,"300 Drayton Street, Suite 100, Savannah, GA 31401​riverportcommerce.com",cbre.us/savannah
"O’Neill Logistics
(Huffy Bicycles DC)","3051 Jimmy Deloach Pkwy, Bloomingdale, GA 31302",912-400-8660​oneilllogistics.com,oneilllogistics.com,Trinity Capital Advisors (Owner/Dev),704-714-4515​trinitycapitaladvisors.com,info@trinitycapitaladvisors.com​trinitycapitaladvisors.com,"650 South Tryon Street, Suite 900, Charlotte, NC 28202​trinitycapitaladvisors.com","William Lattimore, SIOR (CBRE)",912-596-7019​riverportcommerce.com,william.lattimore@cbre.com​riverportcommerce.com,"300 Drayton Street, Suite 100, Savannah, GA 31401​riverportcommerce.com",cbre.us/savannah
N/A (Undisclosed Tenant),"1550 Pine Barren Rd, Bloomingdale, GA 31302",N/A,N/A,Trinity Capital Advisors (Owner/Dev),704-714-4515​trinitycapitaladvisors.com,info@trinitycapitaladvisors.com​trinitycapitaladvisors.com,"650 South Tryon Street, Suite 900, Charlotte, NC 28202​trinitycapitaladvisors.com","William Lattimore, SIOR (CBRE)",912-596-7019​riverportcommerce.com,william.lattimore@cbre.com​riverportcommerce.com,"300 Drayton Street, Suite 100, Savannah, GA 31401​riverportcommerce.com",cbre.us/savannah
Green Worldwide Shipping - Savannah Warehouse & Distribution,"1555 Pine Barren Rd Suite 100, Bloomingdale, GA 31302",19126941820,https://www.greenworldwide.com/,,,,,,,,,
Harbor Freight Warehouse,"1560 Pine Barren Rd, Bloomingdale, GA 31302",,,,,,,,,,,
Outsource logistic,"101-103 S H Morgan Pkwy, Bloomingdale, GA 31302",,,,,,,,,,,
a 10 NOBILE,"111 S H Morgan Pkwy, Bloomingdale, GA 31322",18435751429,,,,,,,,,,
Expeditors,"111 S H Morgan Pkwy, Bloomingdale, GA 31302",,https://www.expeditors.com/,,,,,,,,,
GEODIS | Contract Logistics,"101 S H Morgan Pkwy, Bloomingdale, GA 31302",,,,,,,,,,,
Matson Logistics Bldg B,"1024 S H Morgan Pkwy, Pooler, GA 31322",19123307685,http://matson-bldg-b.jany.io/,,,,,,,,,
"Matson Logistics Warehousing, Inc.","1020 S H Morgan Pkwy, Pooler, GA 31322",19123307704,,,,,,,,,,
Briggs & Stratton Warehouse,"Holland Ind Pk Rd, Statesboro, GA 30461",18007434115,https://www.briggsandstratton.com/,,,,,,,,,
Hypotenuse Warehouse,"12229 US-301, Statesboro, GA 30458",17818887412,,,,,,,,,,
"WL Plastics, INC.","703 Gateway Blvd, Statesboro, GA 30458",19126232300,http://www.wlplastics.com/,,,,,,,,,
GAF,"502 Jimps Rd, Statesboro, GA 30458",19124862700,,,,,,,,,,
8540 Zell Miller Pkwy,8540 Zell Miller Pkwy,,,,,,,,,,,
Walmart Distribution Center 6061,"299 AJ Riggs Rd, Statesboro, GA 30458",19128714000,,,,,,,,,,
Ecoplastic America Corporation,"4822 US-301, Register, GA 30452",19125156866,,,,,,,,,,
Interstate Centre II - Building C,"1864 Interstate Centre Blvd, Ellabell, GA 31308",,,,,,,,,,,
Mckesson (MMS),"1338 Interstate Centre Blvd, Ellabell, GA 31308",,,,,,,,,,,
Daniel Defense,"101 Warfighter Wy, Ellabell, GA 31308",18665544867,,,,,,,,,,
ORAFOL Americas Inc,"1100 Oracal Pkwy, Ellabell, GA 31308",18886722251,https://www.orafol.com/en/americas/,,,,,,,,,
"WebstaurantStore Distribution Center - Ellabell, GA","54 Logistics DR, Ellabell, GA 31308",17173927472,https://www.webstaurantstore.com/,,,,,,,,,
AJ LogisValue USA Inc,"77 Logistics DR Suite 200, Ellabell, GA 31308",,http://www.ajnet.co.kr/eng/business/ajnetworks.asp,,,,,,,,,
GFA Ellabell,"11900 US-280 ste d, Ellabell, GA 31308",,http://www.gfany.com/,,,,,,,,,
World Distribution Services Savannah,"100 Morgan Lakes Industrial Blvd, PORT WENTWRTH, GA 31407",19124216200,https://www.worldds.net/savannah-georgia-warehouse/?utm_source=gmb&utm_medium=organic,,,,,,,,,
Savannah River Logistics,"141 Morgan Lakes Industrial Blvd, Pooler, GA 31322",19124500202,https://savannahriverlogistics.com/#services,,,,,,,,,
Savannah River Logistics building 1,"425 Morgan Lakes Industrial Blvd, Pooler, GA 31322",,,,,,,,,,,
World industrial services,"355 Morgan Lakes Industrial Blvd, Pooler, GA 31322",,,,,,,,,,,
World Distribution,"355 Morgan Lakes Industrial Blvd, Pooler, GA 31322",,,,,,,,,,,
Logipia,"500C Morgan Lakes Industrial Blvd, Savannah, GA 31407",,,,,,,,,,,
Alto Systems,"500 Morgan Lakes Industrial Blvd Suite B, Savannah, GA 31407",,http://altosystems.com/,,,,,,,,,
Safeway Trucking Corporation,"521 Morgan Lakes Industrial Blvd, Savannah, GA 31407",19123484047,https://landing.eastcoastwarehouse.com/savannah/,,,,,,,,,
Factory Direct wholesale,"503 Morgan Lakes Industrial Blvd, Pooler, GA 31322",,,,,,,,,,,
Vertical Cold Storage,"220 Nordic Wy, Pooler, GA 31322",19128032131,http://www.verticalcold.com/,,,,,,,,,
Hanes Geo Components,"160, 20 Triple B Trail Suite160, PORT WENTWRTH, GA 31407",19129881399,https://hanesgeo.com/,,,,,,,,,
"Courier Express Service Center","20 Triple B Trail, Pooler, GA 31322",18884622022,http://www.courierexpress.net/,,,,,,,,,
PortCity,"195 Nordic Wy, Pooler, GA 31322",19122987150,https://portcitylogistics.com/,,,,,,,,,
"Egreentrans
","455 Jimmy Deloach Pkwy, Savannah, GA 31407",,https://egreentrans.com/,,,,,,,,,
Pooler GA. Keen Yard,"102 Norwest Ct, Savannah, GA 31407",,,,,,,,,,,
Safavieh Carpets,"455 Jimmy Deloach Pkwy, Savannah, GA 31407",15169451900,https://safavieh.com/,,,,,,,,,
ONL ROW LOGISTICS,"455 Jimmy Deloach Pkwy, Savannah, GA 31407",,,,,,,,,,,
Noble House Home Furnishings LLC,"425 Jimmy Deloach Pkwy, Savannah, GA 31407",,,,,,,,,,,
XPO Supply Chain,"2509 Dean Forest Rd #200, Savannah, GA 31408",,,,,,,,,,,
Abro Distribution Services LLC,"2509 Dean Forest Rd, Savannah, GA 31408",19129647885,,,,,,,,,,
GFA,"2509 Dean Forest Rd building a, Garden City, GA 31408",,,,,,,,,,,
Supply chain,"246 Grange Rd, Savannah, GA 31407",,,,,,,,,,,
Schneider Logistics Inc,"250 Grange Rd, Port Wentworth, GA 31407",19129652022,,,,,,,,,,
Supply Chain Managenent,"318 Grange Rd, Savannah, GA 31407",,,,,,,,,,,
Aa Heritage Solution,"198 Gulfstream Rd, Savannah, GA 31408",19122980271,,,,,,,,,,
Sherwin-Williams Floorcovering Store,"165 Knowlton Way Ste 105, Savannah, GA 31407",,,,,,,,,,,
SCP Distributors LLC,"167 Knowlton Way Suite 105, Savannah, GA 31407",19129650274,,,,,,,,,,
Amerlife,"150 Knowlton Way, Savannah, GA 31407",,http://amerlifehome.com/,,,,,,,,,
DIRTT Environmental Solutions,"155 Knowlton Way, Savannah, GA 31407",18006056707,,,,,,,,,,
Outsource Logistics,"1 Knowlton Way, Savannah, GA 31407",,,,,,,,,,,
Lowes Distribution Center,"50 Innovation Dr, Savannah, GA 31407",18004456937,,,,,,,,,,
Us Xpress Inc,"151 Crossroads Pkwy, Port Wentworth, GA 31407",19129660344,,,,,,,,,,
Family Dollar Distribution Center,"151 Crossroads Pkwy, Savannah, GA 31407",19129651994,https://www.dollartree.com/locations/ga/savannah/dc5/?utm_source=google&utm_medium=organic&utm_campaign=maps,,,,,,,,,
The Home Depot Distribution Center,"125 Crossroads Pkwy, Savannah, GA 31407",,,,,,,,,,,
Port City/ AA Heritage,"151 Portside Ct, Savannah, GA 31407",,,,,,,,,,,
PortCity,"246 Jimmy Deloach Pkwy, Savannah, GA 31407",19122987150,https://portcitylogistics.com/,,,,,,,,,
PortCity,"250 Jimmy Deloach Pkwy, Savannah, GA 31407",19122987150,,,,,,,,,,
Lst,"276 Jimmy Deloach Pkwy, Port Wentworth, GA 31407",17654484888,,,,,,,,,,
NFI,"100 Logistics Way, Port Wentworth, GA 31407",,,,,,,,,,,
"Main Ocean Services, LLC","200 Logistics Way, Port Wentworth, GA 31407",,,,,,,,,,,
"PGS USA, LLC","200 Expansion Blvd, Port Wentworth, GA 31407",,,,,,,,,,,
Hillebrand,"600 Expansion Blvd, Savannah, GA 31407",,,,,,,,,,,
Veteran Carriers-Prologis Warehouse,"605 Expansion Blvd, Port Wentworth, GA 31407",,,,,,,,,,,
Lineage Logistics,"348 Hendley Rd, Port Wentworth, GA 31407",,,,,,,,,,,
CaiNiao Supply Chain US INC- savanna warehouse,"157 Hendley Rd, Port Wentworth, GA 31407",,,,,,,,,,,
Ketter North American,"405 Expansion Blvd, Savannah, GA 31407",,,,,,,,,,,
DSI Logistics,"175 Portside Ct, Savannah, GA 31407",,,,,,,,,,,
EFW Warehousing,"235 Jimmy Deloach Pkwy, Savannah, GA 31407",,,,,,,,,,,
Walmart DC 7086,"163 Portside Ct, Savannah, GA 31407",,,,,,,,,,,
Damco Distribution Service,"301 Little Hearst Pkwy, Port Wentworth, GA 31407",,,,,,,,,,,
Tradeport Logistics,"301 Little Hearst Pkwy, Port Wentworth, GA 31407",,,,,,,,,,,
"Target Distribution Center",Target Distribution Center,,,,,,,,,,,
IKEA Distribution Center,"202 Little Hearst Pkwy, Port Wentworth, GA 31407",,,,,,,,,,,
Shaw building QQ,"Little Hearst Pkwy, Port Wentworth, GA 31407",,,,,,,,,,,
NFI Cal Cartage,"110 Little Hearst Pkwy, Port Wentworth, GA 31407",,,,,,,,,,,
NFI Cal Cartage,"101 Little Hearst Pkwy, Port Wentworth, GA 31407",,,,,,,,,,,
Crane Worldwide Logistics,"102 Little Hearst Pkwy, Port Wentworth, GA 31407",,,,,,,,,,,
Anatolia,"202 International Trade Pkwy, Port Wentworth, GA 31407",,,,,,,,,,,
Shaw Industries - Plant QQ,"307 International Trade Pkwy, Port Wentworth, GA 31407",,,,,,,,,,,
Stein Fibers,"307 International Trade Pkwy, Port Wentworth, GA 31407",,,,,,,,,,,
Averitt Express,"301 International Trade Pkwy, Savannah, GA 31407",,,,,,,,,,,
SHIP8 INC.,"311 International Trade Pkwy, Port Wentworth, GA 31407",,,,,,,,,,,
SAFAVIEH Furniture L36,"302 International Trade Pkwy, Port Wentworth, GA 31407",,,,,,,,,,,
Wayfair,"310 International Trade Pkwy, Port Wentworth, GA 31407",,,,,,,,,,,
SHIP8 INC.,"550 Northport Pkwy, Port Wentworth, GA 31407",,,,,,,,,,,
Shaw Industries - Plant PW,"445 Northport Pkwy, Port Wentworth, GA 31407",,,,,,,,,,,
Gulfstream Customer Support Distribution Center,"555 Northport Pkwy, Port Wentworth, GA 31407",,,,,,,,,,,
Warehouse Home Depot,"597 Northport Pkwy, Port Wentworth, GA 31407",,,,,,,,,,,
FedEx Ground,"595 Northport Pkwy, Port Wentworth, GA 31407",,,,,,,,,,,
Shaw Industries - Plant QM (Shipping & Receiving),"590 Northport Pkwy, Port Wentworth, GA 31407",,,,,,,,,,,
Shaw Industries - Plant QR,"2004 Trade Center Blvd, Rincon, GA 31326",,,,,,,,,,,
Pacific Cycle,"2008 Trade Center Blvd Suite 100, Rincon, GA 31326",,,,,,,,,,,
Serena & Lily,"2016 Trade Center Blvd #2c, Rincon, GA 31326",,,,,,,,,,,
GEODIS | Contract Logistics,"503 Morgan Lakes Industrial Blvd #100, Savannah, GA 31407",,,,,,,,,,,
FedEx Ground,"505 Morgan Lakes Industrial Blvd, Savannah, GA 31407",,,,,,,,,,,
East Coast Warehouse & Distribution Corporation,"521 Morgan Lakes Industrial Blvd, Savannah, GA 31407
",,,,,,,,,,,
Trek Inc,"2425 Old Augusta Rd S, Rincon, GA 31326",,,,,,,,,,,
Estes Express Lines,"2165 Old Augusta Rd S, Rincon, GA 31326",,,,,,,,,,,
Supply Chain Management,"1601 Old Augusta Rd S, Rincon, GA 31326",,,,,,,,,,,
NFI Industries,"1200 Logistics Pkwy, Rincon, GA 31326",,,,,,,,,,,
Lecangs LLC,"1100 Logistics Pkwy, Rincon, GA 31326",,,,,,,,,,,
DHL Supply Chain,"1009 Gateway Pkwy, Rincon, GA 31326",,,,,,,,,,,
Lion Brand Yarn,"1008 Gateway Pkwy, Rincon, GA 31326",,,,,,,,,,,
Kyungshin America Corporation,"1001 Gateway Pkwy Suite 100, Rincon, GA 31326",,,,,,,,,,,
Aertssen Logistics,"1000 Gateway Pkwy, Rincon, GA 31326",,,,,,,,,,,
Cirro,"1004 Gateway Pkwy, Rincon, GA 31326",,,,,,,,,,,
A&R logistics,A&R logistics,,,,,,,,,,,
NFI,"458 Old Augusta Rd S, Rincon, GA 31326",,,,,,,,,,,
Lowe's BDC,"2020 Trade Center Blvd Building 3A, Suite 100, Rincon, GA 31326",,,,,,,,,,,